{"type":"FeatureCollection","name":"Monev_SAKATA_Geotagging","crs":{"type":"name","properties":{"name":"urn:ogc:def:crs:OGC:1.3:CRS84"}},"metadata":{"title":"Layanan GeoJSON Monitoring & Evaluasi SAKATA","generated_at":"2026-09-19T06:22:11.179Z","total_features":7,"total_kegiatan":4,"mode":"titik","filters":{"id_versi":18,"id_provinsi":null,"kl":null,"status_pelaksanaan":null,"sumber_pembiayaan":null}},"features":[{"type":"Feature","id":"monev-27431-utama","geometry":{"type":"Point","coordinates":[95.521085,5.383073]},"properties":{"id_sandingan":27431,"id_geotag":null,"tipe_titik":"utama","nomor_titik":1,"deskripsi_titik":"Titik Lokasi Utama Kegiatan","link_dokumen":null,"hambatan_kendala":null,"rekomendasi_tindak_lanjut":null,"kegiatan":"Rehabilitasi dan Rekonstruksi Sarana dan Prasarana Satuan Pendidikan","program":"Rehabilitasi dan Rekonstruksi Sarana dan Prasarana Satuan Pendidikan","rincian_output_ro":"Satuan Pendidikan yang direvitalisasi","kl":"Kemendikdasmen","id_provinsi":11,"provinsi":"Aceh","singkatan_provinsi":"ACEH","lokasi_kab_kota":"Aceh Barat","status_pelaksanaan":"Belum Mulai","realisasi_progres_fisik":0,"pagu_anggaran":35808043000,"realisasi_keuangan":0,"serapan_keuangan_pct":0,"tanggal_monitoring":"Wed Sep 09 2026 00:00:00 GM","pic_monev":"pelaksana 1","sumber_pembiayaan":"Pusat","aspek_jitupasna_satgas":"-","aspek_jitupasna_sektor_pemulihan":"Sosial","nomenklatur_jitupasna":"-","total_titik_geotag":1}},{"type":"Feature","id":"monev-30243-utama","geometry":{"type":"Point","coordinates":[99.380191,3.299913]},"properties":{"id_sandingan":30243,"id_geotag":null,"tipe_titik":"utama","nomor_titik":1,"deskripsi_titik":"Titik Lokasi Utama Kegiatan","link_dokumen":null,"hambatan_kendala":null,"rekomendasi_tindak_lanjut":null,"kegiatan":"Pengelolaan Sistem Penyediaan dan Pengawasan Alat Mesin Pertanian","program":"Ketersediaan, Akses dan Konsumsi Pangan Berkualitas","rincian_output_ro":"Alat dan Mesin Pertanian Prapanen Sub Sektor Tanaman Pangan","kl":"Kementerian Pertanian","id_provinsi":12,"provinsi":"Sumatera Utara","singkatan_provinsi":"SUMUT","lokasi_kab_kota":"Kab. Batu bara","status_pelaksanaan":"Konstruksi/Pelaksanaan","realisasi_progres_fisik":13,"pagu_anggaran":8787000000,"realisasi_keuangan":0,"serapan_keuangan_pct":0,"tanggal_monitoring":"","pic_monev":"rusdi/ryan","sumber_pembiayaan":"Pusat","aspek_jitupasna_satgas":"-","aspek_jitupasna_sektor_pemulihan":"Ekonomi","nomenklatur_jitupasna":"-","total_titik_geotag":1}},{"type":"Feature","id":"monev-30243-detail-47","geometry":{"type":"Point","coordinates":[99.380191,3.299913]},"properties":{"id_sandingan":30243,"id_geotag":47,"tipe_titik":"detail","nomor_titik":2,"deskripsi_titik":"Alat dan Mesin Pertanian Prapanen Sub Sektor Tanaman Pangan sebanyak 1 unit","link_dokumen":"https://cloud.bappenas.go.id/s/k6c3t4GxGYL7rXJ","hambatan_kendala":"tidak ada kendala karena mesin Alat dan Mesin Pertanian Prapanen Sub Sektor Tanaman Pangan sudah tersedia","rekomendasi_tindak_lanjut":"tidak ada","kegiatan":"Pengelolaan Sistem Penyediaan dan Pengawasan Alat Mesin Pertanian","program":"Ketersediaan, Akses dan Konsumsi Pangan Berkualitas","rincian_output_ro":"Alat dan Mesin Pertanian Prapanen Sub Sektor Tanaman Pangan","kl":"Kementerian Pertanian","id_provinsi":12,"provinsi":"Sumatera Utara","singkatan_provinsi":"SUMUT","lokasi_kab_kota":"Kab. Batu bara","status_pelaksanaan":"Konstruksi/Pelaksanaan","realisasi_progres_fisik":13,"pagu_anggaran":8787000000,"realisasi_keuangan":0,"serapan_keuangan_pct":0,"tanggal_monitoring":"","pic_monev":"rusdi/ryan","sumber_pembiayaan":"Pusat","aspek_jitupasna_satgas":"-","aspek_jitupasna_sektor_pemulihan":"Ekonomi","nomenklatur_jitupasna":"-","total_titik_geotag":1}},{"type":"Feature","id":"monev-30307-utama","geometry":{"type":"Point","coordinates":[99.488249,2.885367]},"properties":{"id_sandingan":30307,"id_geotag":null,"tipe_titik":"utama","nomor_titik":1,"deskripsi_titik":"Titik Lokasi Utama Kegiatan","link_dokumen":null,"hambatan_kendala":null,"rekomendasi_tindak_lanjut":null,"kegiatan":"Normalisasi Sungai","program":"-","rincian_output_ro":"-","kl":"KemenPU","id_provinsi":12,"provinsi":"Sumatera Utara","singkatan_provinsi":"SUMUT","lokasi_kab_kota":"Asahan","status_pelaksanaan":"Persiapan","realisasi_progres_fisik":0,"pagu_anggaran":2040000000,"realisasi_keuangan":0,"serapan_keuangan_pct":0,"tanggal_monitoring":"Wed Sep 16 2026 00:00:00 GM","pic_monev":"Rusdi/Ryan","sumber_pembiayaan":"Pusat","aspek_jitupasna_satgas":"-","aspek_jitupasna_sektor_pemulihan":"Infrastruktur","nomenklatur_jitupasna":"-","total_titik_geotag":1}},{"type":"Feature","id":"monev-30307-detail-35","geometry":{"type":"Point","coordinates":[99.488249,2.885367]},"properties":{"id_sandingan":30307,"id_geotag":35,"tipe_titik":"detail","nomor_titik":2,"deskripsi_titik":"Lokasi Normalisasi Sungai Ambalutu, Kec. Buntu Pane, Kabupaten Asahan, Sumatera Utara. Sungai tersebut berkoordinat di : 2.885264, 99.488253 menampung air dari perbukitan dan sekitarnya, jika hujan dengan intensitas tingga meluap dan banjir hingga sepinggang orang dewasa.","link_dokumen":"https://cloud.bappenas.go.id/s/n8jbY8GJyYMsXmL","hambatan_kendala":"Pada saat kunjungan lokasi pada tanggal 16 sept 2026 masih belum ada pembangunan, Kementerian PU belum melakukan koordinasi kepada Dinas terkait di Kabupaten Asahan","rekomendasi_tindak_lanjut":"Melakukan koordinasi dengan Kementerian PU untuk mengidentifikasi, apakah kegiatan tersebut sudah tersedia anggaran di tahun 2026, jika sudah tersedia saat ini prosesnya sampaimana dan akan diselesaikan di tahun ini atau ditunda tahun depan","kegiatan":"Normalisasi Sungai","program":"-","rincian_output_ro":"-","kl":"KemenPU","id_provinsi":12,"provinsi":"Sumatera Utara","singkatan_provinsi":"SUMUT","lokasi_kab_kota":"Asahan","status_pelaksanaan":"Persiapan","realisasi_progres_fisik":0,"pagu_anggaran":2040000000,"realisasi_keuangan":0,"serapan_keuangan_pct":0,"tanggal_monitoring":"Wed Sep 16 2026 00:00:00 GM","pic_monev":"Rusdi/Ryan","sumber_pembiayaan":"Pusat","aspek_jitupasna_satgas":"-","aspek_jitupasna_sektor_pemulihan":"Infrastruktur","nomenklatur_jitupasna":"-","total_titik_geotag":1}},{"type":"Feature","id":"monev-30844-utama","geometry":{"type":"Point","coordinates":[99.487978,3.192085]},"properties":{"id_sandingan":30844,"id_geotag":null,"tipe_titik":"utama","nomor_titik":1,"deskripsi_titik":"Titik Lokasi Utama Kegiatan","link_dokumen":null,"hambatan_kendala":null,"rekomendasi_tindak_lanjut":null,"kegiatan":"Rehabilitasi dan Rekonstruksi MAS CIpta Simpang Dolok","program":"Penyediaan dan Peningkatan Kualitas Sarana Prasarana Pendidikan (7717)","rincian_output_ro":"Revitalisasi Sarana dan Prasarana Madrasah (7717.RBI.005)","kl":"KemenPU","id_provinsi":12,"provinsi":"Sumatera Utara","singkatan_provinsi":"SUMUT","lokasi_kab_kota":"Batu Bara","status_pelaksanaan":"Persiapan","realisasi_progres_fisik":0,"pagu_anggaran":2700000000,"realisasi_keuangan":0,"serapan_keuangan_pct":0,"tanggal_monitoring":"","pic_monev":"Rusdi/Ryan","sumber_pembiayaan":"Pusat","aspek_jitupasna_satgas":"-","aspek_jitupasna_sektor_pemulihan":"Sosial","nomenklatur_jitupasna":"-","total_titik_geotag":1}},{"type":"Feature","id":"monev-30844-detail-57","geometry":{"type":"Point","coordinates":[99.487978,3.192085]},"properties":{"id_sandingan":30844,"id_geotag":57,"tipe_titik":"detail","nomor_titik":2,"deskripsi_titik":"Rehabilitasi dan Rekonstruksi kelas terdampak banjir di MAS Cipta Simpang Dolok Kabupaten Batu Bara, Sumatera Utara ","link_dokumen":"https://cloud.bappenas.go.id/s/k6c3t4GxGYL7rXJ","hambatan_kendala":"Informasi dari Ibu Kepala Sekolah MAS Cipta Simpang Dolo,  Beberapa kementerian sdh hadir mengukur, pengawas sudah ada namun pelaksana datang serta belum ada material yang masuk untuk Rehabilitasi dan Rekonstruksi, perusahaan masuk nindia karya yang mengukur, 4 bulan pelaksanaan","rekomendasi_tindak_lanjut":"Diperlukan koordinasi lebih lanjut dengan kementerian pu terkait pekerjaan yang akan dilakukan kapan dimulai","kegiatan":"Rehabilitasi dan Rekonstruksi MAS CIpta Simpang Dolok","program":"Penyediaan dan Peningkatan Kualitas Sarana Prasarana Pendidikan (7717)","rincian_output_ro":"Revitalisasi Sarana dan Prasarana Madrasah (7717.RBI.005)","kl":"KemenPU","id_provinsi":12,"provinsi":"Sumatera Utara","singkatan_provinsi":"SUMUT","lokasi_kab_kota":"Batu Bara","status_pelaksanaan":"Persiapan","realisasi_progres_fisik":0,"pagu_anggaran":2700000000,"realisasi_keuangan":0,"serapan_keuangan_pct":0,"tanggal_monitoring":"","pic_monev":"Rusdi/Ryan","sumber_pembiayaan":"Pusat","aspek_jitupasna_satgas":"-","aspek_jitupasna_sektor_pemulihan":"Sosial","nomenklatur_jitupasna":"-","total_titik_geotag":1}}]}